#dP2019  9  6  0  0  0.00000000      96 __u+U ITR00 FIT  IAC
## 2069 432000.00000000   900.00000000 58732 0.0000000000000
+  117   C01C02C03C04C05C06C07C08C09C10C11C12C13C14C16C19C20
+        C21C22C23C24C25C26C27C28C29C30C32C33C34C35C36C37E01
+        E02E03E04E05E07E08E09E11E12E13E14E15E18E19E21E24E25
+        E26E27E30E31E33E36G01G02G03G04G05G06G07G08G09G10G11
+        G12G13G14G15G16G17G18G19G20G21G22G23G24G25G26G27G28
+        G29G30G31G32J01J02J03J07R01R02R03R05R06R07R08R09R11
+        R12R13R14R15R16R17R18R19R20R21R22R23R24R26R27  0  0
++        13 13 13 13 13  8  9  8  8  8  8  7  8  7  9  7  8
++         8  7  8  8  8  8  0  8  8  8  8  8  8  9  9 10  5
++         5  5  4  5  5  5  4  5  5  5  5  5  6  5  4  5  5
++         5  5  5  5  5  5  3  3  3  4  3  3  3  3  4  3  3
++         3  3  3  0  3  3  3  3  3  3  3  3  3  3  3  3  3
++         3  3  3  3  9  9  9 13  6  5  5  5 11  5  5  6  6
++         6  6  5  5  6  5  5  6  6  5  5  5  6  8  8  0  0
%c M  cc GPS ccc cccc cccc cccc cccc ccccc ccccc ccccc ccccc
%c cc cc ccc ccc cccc cccc cccc cccc ccccc ccccc ccccc ccccc
%f  0.0000000  0.000000000  0.00000000000  0.000000000000000
%f  0.0000000  0.000000000  0.00000000000  0.000000000000000
%i    0    0    0    0      0      0      0      0         0
%i    0    0    0    0      0      0      0      0         0
/* INFORMATION & ANALYSIS CENTER (IAC) OF MCC   (RAPID DATA)
/* S/V CLOCKS ARE ALIGNED TO GPS & GLONASS TIME RESPECTIVELY
/* USING THE BROADCAST EPHEMERIS                            
/* PCV:IGS14_2062 OL/AL:FES2004  NONE     YN ORB:CoN CLK:CoN
*  2019 09 06  3 15  0.00000000
PC01 -32276.849447  27105.154934    183.317472   -146.431116
PC02   4321.349657  41953.089992    528.719596    888.566224
PC03 -14775.457387  39479.331155    724.454662    -22.554287
PC04 -39616.475295  14372.980398    454.152613    -17.635982
PC05  21881.607243  36044.099321    494.334393     43.770509
PC06 -23997.014113  28663.738907 -19506.869200    429.188809
PC07 -11093.644639  37171.254166 -15708.535511   -112.051019
PC08  -9958.396381  19481.753266  36115.785961     -1.873797
PC09 -10730.314999  28297.473671 -29269.251986    -54.413682
PC10  -1748.612503  41649.183981  -4379.280044   -149.685096
PC11 -13186.221846 -12482.785213 -21119.154615    172.284586
PC12  17709.116361 -13429.339940 -16871.321149   -241.424608
PC13   4252.121449  26983.803848  32247.170497   -912.850922
PC14   2136.483192 -25548.826621  11032.335702    506.158277
PC16 -20801.202938  29188.550863 -22316.468757   -876.799150
PC19  11954.924598  11765.973540 -22277.533673    190.863015
PC20   -959.641049  25005.022891 -12305.188623    -36.431058
PC21  13707.079462 -23748.763488  -5234.892686    326.508605
PC22  18146.337916  -8527.751721 -19420.824348    -69.264831
PC23 -19269.166094  -2105.440016 -20064.426712   -937.031986
PC24  -8379.402966 -24251.349053  10962.343203   -909.954292
PC25 -20202.595342 -18030.643320  -6715.739954   -338.999537
PC26   6825.151026 -16138.436919  21715.971475    376.573531
PC27      0.000000      0.000000      0.000000 999999.999999
PC28 -27673.350595   3479.175309    629.539312    178.734179
PC29  21719.160534   7785.549998  15693.231182    114.529084
PC30   2858.036957  15657.120227  22919.940062    187.720549
PC32 -13544.892992  23822.116903   5252.736453   -919.103485
PC33 -12000.182363 -11816.244964  22257.872470   -363.657035
PC34  -3170.258085 -15657.153660 -22886.977116    -54.396082
PC35  27544.575259  -4356.126692   -552.537976   -308.722677
PC36  19751.636787  18569.174289   6621.205212   -797.289773
PC37  -7580.425733  15588.135534 -21841.659917 999999.999999
PE01  -3922.009456 -28966.485401   4699.062747   -684.030028
PE02   3980.650168  28966.344400  -4614.373363     77.529025
PE03  -4932.347422  22735.163899 -18290.861429   -207.678810
PE04 -13288.019464 -10938.916958  24086.889109   -359.633588
PE05 -20453.120391  21324.838529  -1709.868635   -451.100234
PE07  23920.930416  -7466.356506 -15758.691856   -260.639999
PE08  13397.506406  10595.725246 -24172.207784   6296.146885
PE09 -23795.464525   7727.015739  15810.376715   6325.240551
PE11 -28423.435900  -2454.098754   7897.245782   5601.351789
PE12 -23334.536626 -14279.231607 -11318.091807   6212.303159
PE13  28452.660635   2427.281724  -7800.971313    392.475377
PE14  -7452.092268  16603.341648  15400.175554   -709.199933
PE15  23643.046583  13986.014064  11034.376831    896.541626
PE18    954.017801 -21606.143931 -24148.038297   -803.554575
PE19   6875.031621 -23219.355621  17027.503179     -4.117029
PE21   9188.043970 -19290.466585  20494.587408   -553.317573
PE24 -16962.306125  -1622.957588 -24205.560225   5885.896476
PE25  -9229.312774  19209.899190 -20526.099954   1687.698770
PE26  16607.118637 -10667.904072 -22064.271979   4139.972533
PE27  16957.501654   1750.949841  24207.513103    393.184140
PE30  14686.507547  21708.527679  13756.192593   4569.868641
PE31 -14739.719779 -21720.064002 -13678.039604   -468.086151
PE33  -4963.336011 -17372.625549 -23445.016012   -469.919683
PE36 -16586.218196  10586.209676  22111.532022    665.676526
PG01 -22471.864922 -14370.304624   1600.594990   -119.563620
PG02   9138.628673  19166.294920  16651.625486   -298.899194
PG03 -13343.243742 -10532.318778  20377.245671     -8.115453
PG04   4749.869133 -18304.763832 -18721.213564    117.119231
PG05   3502.481805  25369.458314  -6767.897046     -1.180685
PG06  -6517.740833  13525.277025  21947.571438    -48.194656
PG07 -21980.918537  -2826.269602 -14705.539998   -100.395055
PG08 -13390.954934  -9381.667532 -20939.648135     -5.441165
PG09 -24738.462207   6736.264487   6902.023874    -24.181467
PG10  11449.483941 -19058.485421 -14307.048876    -42.382311
PG11 -23487.200314  -9681.665607  -7743.261486   -515.124895
PG12  10552.786794  15119.503282  18964.591218    206.855210
PG13   2588.574801  14998.713808 -21875.221672    -45.874097
PG14  11886.172053 -17066.335143  16741.928679    -62.824880
PG15      0.000000      0.000000      0.000000 999999.999999
PG16    171.079921 -25645.892142  -6146.211841    -71.524374
PG17 -19253.535644  15306.643395  10320.294136    120.259618
PG18 -18688.759391 -17654.500842  -7391.220248     83.534823
PG19 -14979.220291  15878.528586  14853.318280   -271.113911
PG20  14393.781146 -10125.835519 -19950.343019    526.759399
PG21  19426.244107  -2548.699470 -17059.267611   -123.732184
PG22 -12028.047196 -17555.936563  16170.897513   -751.896191
PG23 -20869.429327  -3089.341417  16709.454516   -168.400817
PG24  22303.234005  14727.683636  -1241.841449     -1.778502
PG25  14981.609991   -271.232450  21708.050242    -10.963224
PG26   4723.500457 -25601.872297   4719.547197     32.328650
PG27    182.366551 -15956.064591 -21289.216204    -46.573948
PG28 -12363.806397  18960.492930 -13373.171465    762.976354
PG29  24666.937962  -3142.768832   9332.319531    105.490331
PG30 -15127.073061   7409.709270 -20543.316477    -34.762471
PG31   5410.510387 -14660.689073  21417.471744     12.330884
PG32  18696.125134 -16345.371365   9306.017028     46.505193
PJ01 -30162.794859  27943.652492  14251.074242   -251.088623
PJ02 -19628.936660  22013.412081 -25691.775887     -3.525235
PJ03 -30635.803933  27459.264519  14210.792306     -1.504892
PJ07 -25381.203363  33659.501192    -34.973145     -0.023517
PR01 -11205.557329  -2817.781031  22739.157177     49.288849
PR02 -16721.863737  15779.821867  11142.138001    386.723007
PR03 -10960.606901  22184.564423  -6253.714876      1.106599
PR05  12281.723998    380.026356 -22341.765506     35.181987
PR06  16340.510464 -16664.252875 -10276.110118    161.378082
PR07  10593.849628 -22142.648714   6899.740906    -26.188431
PR08  -1015.936409 -15831.053092  20021.787990     15.801432
PR09   8349.255152  -8078.067390  22733.889060     89.158190
PR11 -11902.416174 -22572.000092   -961.060821    -78.420058
PR12 -14995.266840 -12599.182881 -16299.028510     59.130971
PR13  -9418.176134   5544.850194 -23057.181284    -28.027294
PR14   1405.379937  19814.680085 -15971.472504     42.698426
PR15  11497.429108  22767.420152    162.042273    103.839197
PR16  15346.945075  12171.399257  16391.259966      4.911210
PR17  -8001.954414   9695.737377  22190.164874    257.894101
PR18  10566.188051  10129.211397  20885.664815      6.449547
PR19  23379.048788   5758.921251   8433.744753    -52.265077
PR20  22871.117669  -2922.912506 -10868.916819   -389.607600
PR21   7306.987877  -9744.120943 -22422.574057    -70.611604
PR22 -13525.692300  -9648.863686 -19399.862065    -36.432021
PR23 -25185.259739  -2910.670818  -2788.757429    252.035603
PR24 -21772.578293   4227.800547  12575.132379   -184.426047
PR26  24232.465264  -1940.857269  -7772.043830     -6.820420
PR27   9035.069771  23426.644626  -4757.744065    120.169311
EOF
